{
  "norad_id": 53524,
  "name": "YAOGAN-35 04B",
  "history": [
    {
      "epoch": "2026-03-28T16:08:36.449376Z",
      "apogee_km": 467.3275179271568,
      "perigee_km": 461.8986168786805,
      "latitude_deg": -2.41585179764218e-06,
      "longitude_deg": 114.42280006304952,
      "height_km": 464.00943362478057,
      "semi_major_axis_km": 6842.750067402918,
      "eccentricity": 0.00039669,
      "inclination_deg": 35.0008,
      "raan_deg": 182.6644,
      "arg_perigee_deg": 259.5542,
      "mean_anomaly_deg": 100.4729,
      "mean_motion_rev_day": 15.33757663
    },
    {
      "epoch": "2026-03-30T05:38:06.252576Z",
      "apogee_km": 467.1359633572729,
      "perigee_km": 461.68655792249865,
      "latitude_deg": 1.4026138616181309e-05,
      "longitude_deg": -99.47818172723788,
      "height_km": 463.28504482464115,
      "semi_major_axis_km": 6842.5482606398855,
      "eccentricity": 0.0003982,
      "inclination_deg": 35.0007,
      "raan_deg": 172.6773,
      "arg_perigee_deg": 270.6423,
      "mean_anomaly_deg": 89.3839,
      "mean_motion_rev_day": 15.33825516
    },
    {
      "epoch": "2026-03-30T07:11:49.869600Z",
      "apogee_km": 467.12141205524495,
      "perigee_km": 461.68843376845325,
      "latitude_deg": -1.178922646824731e-05,
      "longitude_deg": -123.39020973292448,
      "height_km": 463.25118368250423,
      "semi_major_axis_km": 6842.541922911849,
      "eccentricity": 0.000397,
      "inclination_deg": 35.0007,
      "raan_deg": 172.2612,
      "arg_perigee_deg": 271.2249,
      "mean_anomaly_deg": 88.8014,
      "mean_motion_rev_day": 15.33827647
    },
    {
      "epoch": "2026-03-30T13:26:44.227104Z",
      "apogee_km": 467.1042915473445,
      "perigee_km": 461.6420525272106,
      "latitude_deg": 2.2259591943493484e-05,
      "longitude_deg": 140.96233531381515,
      "height_km": 463.09914898253595,
      "semi_major_axis_km": 6842.510172037277,
      "eccentricity": 0.00039914,
      "inclination_deg": 35.0008,
      "raan_deg": 170.5968,
      "arg_perigee_deg": 273.7451,
      "mean_anomaly_deg": 86.2811,
      "mean_motion_rev_day": 15.33838323
    },
    {
      "epoch": "2026-03-31T12:52:36.738048Z",
      "apogee_km": 467.022383679051,
      "perigee_km": 461.5008416945584,
      "latitude_deg": -2.018675521362907e-05,
      "longitude_deg": 142.28879332420004,
      "height_km": 462.63230427471115,
      "semi_major_axis_km": 6842.398612686805,
      "eccentricity": 0.00040348,
      "inclination_deg": 35.0007,
      "raan_deg": 164.3544,
      "arg_perigee_deg": 281.1469,
      "mean_anomaly_deg": 78.8795,
      "mean_motion_rev_day": 15.33875835
    },
    {
      "epoch": "2026-04-01T15:25:53.789088Z",
      "apogee_km": 466.8799814761496,
      "perigee_km": 461.40068578737737,
      "latitude_deg": 7.144021193401453e-06,
      "longitude_deg": 95.80182331048543,
      "height_km": 462.1745285227719,
      "semi_major_axis_km": 6842.277333631763,
      "eccentricity": 0.0004004,
      "inclination_deg": 35.0003,
      "raan_deg": 157.279,
      "arg_perigee_deg": 288.5195,
      "mean_anomaly_deg": 71.5088,
      "mean_motion_rev_day": 15.33916617
    },
    {
      "epoch": "2026-04-02T14:51:41.878944Z",
      "apogee_km": 466.7136289896898,
      "perigee_km": 461.3148979567595,
      "latitude_deg": 5.6891642439070036e-05,
      "longitude_deg": 97.14608350295865,
      "height_km": 461.74210001282677,
      "semi_major_axis_km": 6842.151263473224,
      "eccentricity": 0.00039452,
      "inclination_deg": 35.0,
      "raan_deg": 151.0358,
      "arg_perigee_deg": 295.8384,
      "mean_anomaly_deg": 64.1928,
      "mean_motion_rev_day": 15.33959012
    }
  ]
}